0 H-2 R/B
1 22980U 94007C   13281.43334678  .00001271  00000-0  61962-3 0  1994
2 22980 028.7093 280.4228 6843828 170.7026 208.1583 02.82530402190171
0 H-2 R/B
1 22980U 94007C   13282.61856728  .00001338  00000-0  62299-3 0  2001
2 22980 028.7069 279.8703 6843907 171.6010 333.6520 02.82538615190208
0 H-2 R/B
1 22980U 94007C   13286.17262081  .00001747  00000-0  69556-3 0  2028
2 22980 028.6983 278.2120 6844288 174.2970 348.6591 02.82549650190301
0 H-2 R/B
1 22980U 94007C   13287.23793137  .00001953  00000-0  77469-3 0  2039
2 22980 028.6964 277.7146 6844411 175.1036 352.2705 02.82553226190338
0 H-2 R/B
1 22980U 94007C   13288.30214512  .00002243  00000-0  90526-3 0  2046
2 22980 028.6944 277.2181 6844503 175.9083 354.7761 02.82559169190366
0 H-2 R/B
1 22980U 94007C   13289.36476916  .00001930  00000-0  79390-3 0  2050
2 22980 028.6921 276.7220 6844660 176.7128 355.6911 02.82563691190397
0 H-2 R/B
1 22980U 94007C   13290.42445541  .00002004  00000-0  84988-3 0  2062
2 22980 028.6906 276.2240 6844899 177.5220 353.6379 02.82565631190429
0 H-2 R/B
1 22980U 94007C   13291.48532381  .00001837  00000-0  80781-3 0  2079
2 22980 028.6883 275.7281 6845063 178.3255 352.7938 02.82569057190453
0 H-2 R/B
1 22980U 94007C   13292.18714767  .00001761  00000-0  79147-3 0  2088
2 22980 028.6870 275.3997 6845189 178.8576 346.7209 02.82570986190478
0 H-2 R/B
1 22980U 94007C   13293.25281104  .00001723  00000-0  79344-3 0  2099
2 22980 028.6853 274.9020 6845261 179.6625 350.7696 02.82575875190507
0 H-2 R/B
1 22980U 94007C   13294.31811567  .00001574  00000-0  73749-3 0  2108
2 22980 028.6827 274.4053 6845376 180.4683 354.4682 02.82581500190531
0 H-2 R/B
1 22980U 94007C   13295.38182149  .00001658  00000-0  76184-3 0  2113
2 22980 028.6798 273.9068 6845571 181.2770 356.5646 02.82585606190568
